[Satellite]
VERSION=1.1
NAME=MOLNIYA 1-90
NICKNAME=MOLNIYA 1-90
TLE1=1 24960U 97054A   20156.98537809 -.00000125  00000-0  14520-4 0  9994
TLE2=2 24960  63.4694 341.3405 6373489 300.7202  11.6408  3.18683732184340
STATUS=0
